satname,norad_id,inclination_deg,eccentricity,mean_motion_rev_per_day,perigee_km,apogee_km,l1,l2
STARLINK-1255,45399,53.0544,0.0001098,15.06404902,546.4361324329966,547.9569356770744,1 45399U 20019AR  25249.70377601 -.00001040  00000+0 -50926-4 0  9997,2 45399  53.0544 242.5662 0001098  90.7578 269.3536 15.06404902302228
STARLINK-1259,45403,53.0501,0.0010858,15.77068016,331.4596342280811,346.04603218987813,1 45403U 20019AV  25249.91668981  .00203993  00000+0  11986-2 0  9990,2 45403  53.0501 212.8094 0010858  33.9096  99.8547 15.77068016  6021
STARLINK-1260,45404,53.0536,0.000136,15.06390744,546.2980751284358,548.181777652414,1 45404U 20019AW  25249.47156477  .00000412  00000+0  46557-4 0  9999,2 45404  53.0536 243.6091 0001360  89.5897 270.5248 15.06390744302093
STARLINK-1263,45405,53.0545,0.0001006,15.06398325,546.5200009954187,547.9133821581627,1 45405U 20019AX  25249.72220673  .00000414  00000+0  46649-4 0  9992,2 45405  53.0545 242.4822 0001006  88.4621 271.6483 15.06398325302134
STARLINK-1265,45406,53.0539,0.0001538,15.06403656,546.1352359626317,548.2654697323687,1 45406U 20019AY  25249.39784248  .00000296  00000+0  38774-4 0  9997,2 45406  53.0539 243.9373 0001538  94.2846 265.8319 15.06403656302080
STARLINK-1278,45408,53.0542,0.0001281,15.0639657,546.334931917293,548.1092089111326,1 45408U 20019BA  25249.35822129 -.00000912  00000+0 -42369-4 0  9998,2 45408  53.0542 274.1178 0001281  87.7476 272.3660 15.06396570301667
STARLINK-1296,45412,53.0541,0.0001427,15.0640016,546.222820392124,548.1993147306075,1 45412U 20019BE  25249.26883213  .00000234  00000+0  34636-4 0  9997,2 45412  53.0541 244.5183 0001427  87.3776 272.7376 15.06400160302063
STARLINK-1298,45413,53.0514,0.000834,15.39709113,441.276658989952,452.6609354597231,1 45413U 20019BF  25249.91668981  .00150247  00000+0  36782-2 0  9995,2 45413  53.0514 232.9696 0008340  33.9240 184.4862 15.39709113  5827
STARLINK-1309,45414,53.0541,0.0001215,15.06399603,546.3713446887414,548.054204683991,1 45414U 20019BG  25249.68166172  .00000071  00000+0  23644-4 0  9999,2 45414  53.0541 242.6646 0001215  83.2812 276.8315 15.06399603302112
STARLINK-1316,45415,53.0547,0.0001476,15.06401034,546.1862078996155,548.2305698584123,1 45415U 20019BH  25249.70745988 -.00000993  00000+0 -47804-4 0  9990,2 45415  53.0547 242.5450 0001476  84.8295 275.2862 15.06401034302158
STARLINK-1318,45416,53.0539,0.0001347,15.54425017,402.91101895796055,404.73807939931066,1 45416U 20019BJ  25249.68295572  .00035553  00000+0  53675-3 0  9997,2 45416  53.0539 230.0720 0001347  97.1732 262.9431 15.54425017302315
STARLINK-1286,45417,53.0528,0.0001181,15.06408505,546.3676108746213,548.0033720471038,1 45417U 20019BK  25249.47987195  .00004412  00000+0  31481-3 0  9995,2 45417  53.0528 273.5738 0001181  99.2922 260.8201 15.06408505301956
STARLINK-1308,45419,53.0543,0.0001232,15.06402494,546.3507121973971,548.0571161986545,1 45419U 20019BM  25249.80790555  .00001410  00000+0  11351-3 0  9995,2 45419  53.0543 272.1003 0001232  86.7630 273.3500 15.06402494301759
STARLINK-1329,45531,53.0546,0.0001238,15.06399752,546.3549597770925,548.0696762682337,1 45531U 20025A   25249.17945250 -.00000358  00000+0 -51569-5 0  9990,2 45531  53.0546 214.9179 0001238  87.5205 272.5926 15.06399752297285
STARLINK-1338,45532,53.0534,0.0001374,15.06398693,546.2640202656785,548.1671071501851,1 45532U 20025B   25249.12415903 -.00000691  00000+0 -27473-4 0  9999,2 45532  53.0534 215.1660 0001374  82.5984 277.5161 15.06398693297279
STARLINK-1350,45535,53.0754,0.0002972,15.30736012,471.578760513069,475.6514419620453,1 45535U 20025E   25249.92663510  .00017156  00000+0  58031-3 0  9994,2 45535  53.0754 172.6217 0002972  91.0493 269.0847 15.30736012297967
STARLINK-1362,45538,53.0544,0.0001334,15.06396472,546.2985278311953,548.1462137113158,1 45538U 20025H   25249.62078853 -.00001273  00000+0 -66556-4 0  9991,2 45538  53.0544 212.6538 0001334  85.2855 274.8286 15.06396472297355
STARLINK-1368,45540,53.0543,0.0001581,15.06341224,546.2967776822998,548.4866298584311,1 45540U 20025K   25249.62547267  .00010494  00000+0  72348-3 0  9992,2 45540  53.0543 212.9145 0001581 109.3273 250.7887 15.06341224297344
STARLINK-1371,45542,53.0541,0.0001374,15.06398293,546.2652460416675,548.1683332630637,1 45542U 20025M   25249.59596045 -.00000613  00000+0 -22242-4 0  9991,2 45542  53.0541 213.0498 0001374 101.2734 258.8409 15.06398293297347
STARLINK-1372,45543,53.0546,0.0001419,15.06395345,546.2431158947238,548.2085338644247,1 45543U 20025N   25249.63282350 -.00000658  00000+0 -25308-4 0  9993,2 45543  53.0546 212.8816 0001419  99.0029 261.1120 15.06395345296447
STARLINK-1373,45544,53.0547,0.000147,15.06401845,546.1878778779947,548.2239286915592,1 45544U 20025P   25249.18681903 -.00000404  00000+0 -82221-5 0  9998,2 45544  53.0547 214.8874 0001470  92.4306 267.6851 15.06401845297285
STARLINK-1294,45551,53.0528,0.0006049,15.47913017,418.7182679427451,426.94608044968663,1 45551U 20025W   25249.91668981  .00104369  00000+0  19514-2 0  9993,2 45551  53.0528 163.3382 0006049 132.7854 289.3176 15.47913017  5953
STARLINK-1323,45553,53.0404,0.0009368,15.83745005,313.5861463108158,326.135515046376,1 45553U 20025Y   25249.91668981  .00224924  00000+0  97137-3 0  9993,2 45553  53.0404 150.0792 0009368  57.5973 287.3871 15.83745005  5937
STARLINK-1325,45554,53.062,0.0001062,15.44917445,430.89745820976805,432.3438507355786,1 45554U 20025Z   25249.93160182  .00068595  00000+0  14321-2 0  9999,2 45554  53.0620 154.6379 0001062 137.6196 222.4892 15.44917445298202
STARLINK-1327,45555,53.0552,0.0001418,15.06395657,546.2428523267772,548.2068849527222,1 45555U 20025AA  25249.29188050  .00004890  00000+0  34698-3 0  9991,2 45555  53.0552 194.4124 0001418  86.6146 273.5005 15.06395657297575
STARLINK-1336,45557,53.0418,0.001093,15.78243034,328.0806412746115,342.7564737233042,1 45557U 20025AC  25249.91668981  .00205318  00000+0  11445-2 0  9990,2 45557  53.0418 155.0630 0010930  66.4215 301.6763 15.78243034  5712
STARLINK-1342,45558,53.0484,0.0008757,15.86610993,305.93403970086456,317.65078207109036,1 45558U 20025AD  25249.91668981  .00245971  00000+0  92335-3 0  9998,2 45558  53.0484 152.6161 0008757  66.7096 238.7943 15.86610993  6051
STARLINK-1355,45563,53.0325,0.0005104,15.98227744,275.9377794307002,282.7337276174985,1 45563U 20025AJ  25249.91668981  .00483415  10974-3  10229-2 0  9997,2 45563  53.0325  82.7177 0005104 270.7776  14.1126 15.98227744  6089
STARLINK-1356,45564,53.0536,0.0001106,15.06387109,546.4851193581426,548.0170151986249,1 45564U 20025AK  25249.56095518  .00004657  00000+0  33146-3 0  9995,2 45564  53.0536 193.2027 0001106  85.6337 274.4779 15.06387109297617
STARLINK-1357,45565,53.0648,0.0008099,15.23978352,488.28933358284485,499.4205861594437,1 45565U 20025AL  25249.91668981  .00056211  00000+0  22868-2 0  9996,2 45565  53.0648 184.7253 0008099  67.3458  58.6212 15.23978352  5837
STARLINK-1361,45567,53.0518,0.0001243,15.06393348,546.3711220753203,548.0927687951544,1 45567U 20025AN  25249.57937883  .00000423  00000+0  47283-4 0  9994,2 45567  53.0518 193.1233 0001243  96.6335 263.4795 15.06393348297629
STARLINK-1363,45568,53.0527,0.0001538,15.06416592,546.0955955274803,548.225817101943,1 45568U 20025AP  25249.26242920  .00007918  00000+0  54963-3 0  9990,2 45568  53.0527 194.7865 0001538  97.3704 262.7459 15.06416592297562
STARLINK-1366,45569,53.0547,0.0001387,15.06385049,546.2968287782915,548.2179331795751,1 45569U 20025AQ  25249.58307501  .00004960  00000+0  35179-3 0  9995,2 45569  53.0547 193.1053 0001387  83.7835 276.3313 15.06385049297611
STARLINK-1376,45570,53.0547,0.0001762,15.06396134,546.0031581931516,548.4436552004718,1 45570U 20025AR  25249.57570116  .00001329  00000+0  10809-3 0  9999,2 45570  53.0547 193.1376 0001762  85.8901 274.2289 15.06396134297611
STARLINK-1320,45572,53.0621,0.0008391,15.33715717,458.99597336183524,470.47968590092387,1 45572U 20025AT  25249.93803647  .00066875  00000+0  20140-2 0  9994,2 45572  53.0621 146.9540 0008391 119.3189 240.8651 15.33715717298313
STARLINK-1321,45573,53.0541,0.0001297,15.06407675,546.2898206114778,548.0862499256264,1 45573U 20025AU  25249.23012775  .00005001  00000+0  35432-3 0  9997,2 45573  53.0541 184.6880 0001297 102.0337 258.0798 15.06407675297406
STARLINK-1328,45576,53.055,0.0001451,15.50046608,415.60394486903533,417.57577460372977,1 45576U 20025AX  25249.91668981  .01654802  00000+0  25933-1 0  9994,2 45576  53.0550 178.3505 0001451 113.5231 321.1808 15.50046608  5848
STARLINK-1331,45578,53.0542,0.0001376,15.06395538,546.272303516078,548.1781632026978,1 45578U 20025AZ  25249.53977041  .00002961  00000+0  21761-3 0  9993,2 45578  53.0542 183.2995 0001376  86.0135 274.1012 15.06395538297760
STARLINK-1333,45580,53.0531,0.0001107,15.06394095,546.4630178831057,547.9962940607375,1 45580U 20025BB  25249.54620209 -.00000401  00000+0 -80464-5 0  9994,2 45580  53.0531 193.2733 0001107 100.9576 259.1538 15.06394095297616
STARLINK-1335,45581,53.054,0.0001337,15.0640502,546.270255358866,548.1220894491662,1 45581U 20025BC  25249.55081499  .00003820  00000+0  27519-3 0  9994,2 45581  53.0540 183.2499 0001337  88.2528 271.8615 15.06405020297758
STARLINK-1337,45582,53.0545,0.0001386,15.06410038,546.2209440387296,548.140642130973,1 45582U 20025BD  25249.24119234  .00005788  00000+0  40706-3 0  9998,2 45582  53.0545 184.6394 0001386  96.6730 263.4417 15.06410038297702
STARLINK-1347,45586,53.0551,0.0007339,15.23257958,490.9764905299362,501.06638028142333,1 45586U 20025BH  25249.53774108  .00089861  00000+0  37101-2 0  9999,2 45586  53.0551 176.7222 0007339  69.1304 291.0477 15.23257958297837
STARLINK-1349,45587,53.043,0.0001476,16.04259519,261.65770175376656,263.6180584983804,1 45587U 20025BJ  25249.91480786  .01697996  18999-2  25917-2 0  9994,2 45587  53.0430 133.4688 0001476  96.6954 263.4245 16.04259519298485
